{
  "type": "FeatureCollection",
  "features": [
    {
      "type": "Feature",
      "properties": {
        "norad_id": 35616,
        "name": "IRIDIUM 33 DEB",
        "group": "iridium-33-debris",
        "lat": 21.018268312087912,
        "lon": -10.604027099553267,
        "alt_km": 630.2491385721023,
        "timestamp": "2025-12-07T20:38:14.449091+00:00",
        "meta_object_name": "IRIDIUM 33 DEB",
        "meta_object_id": "1997-051QN",
        "meta_epoch": "2025-12-06T07:15:38.847744",
        "meta_mean_motion": 14.81564916,
        "meta_eccentricity": 0.00091957,
        "meta_inclination": 86.3542,
        "meta_ra_of_asc_node": 348.7026,
        "meta_arg_of_pericenter": 186.8662,
        "meta_mean_anomaly": 173.2436,
        "meta_ephemeris_type": 0,
        "meta_classification_type": "U",
        "meta_norad_cat_id": 35616,
        "meta_element_set_no": 999,
        "meta_rev_at_epoch": 87479,
        "meta_bstar": 0.0030438731,
        "meta_mean_motion_dot": 0.00023991,
        "meta_mean_motion_ddot": 0,
        "tle_line1": "1 35616U 97051QN  25340.30253296  .00023991  00000+0  30439-2 0  9991",
        "tle_line2": "2 35616  86.3542 348.7026 0009195 186.8662 173.2436 14.81564916874798"
      },
      "geometry": {
        "type": "Point",
        "coordinates": [
          -10.604027099553267,
          21.018268312087912
        ]
      }
    },
    {
      "type": "Feature",
      "properties": {
        "norad_id": 35618,
        "name": "IRIDIUM 33 DEB",
        "group": "iridium-33-debris",
        "lat": -57.00410820990582,
        "lon": -10.020919305773146,
        "alt_km": 727.168810903021,
        "timestamp": "2025-12-07T20:38:14.449102+00:00",
        "meta_object_name": "IRIDIUM 33 DEB",
        "meta_object_id": "1997-051QQ",
        "meta_epoch": "2025-12-05T07:42:53.148672",
        "meta_mean_motion": 14.52258119,
        "meta_eccentricity": 0.00302089,
        "meta_inclination": 86.3407,
        "meta_ra_of_asc_node": 356.7447,
        "meta_arg_of_pericenter": 46.3254,
        "meta_mean_anomaly": 314.0448,
        "meta_ephemeris_type": 0,
        "meta_classification_type": "U",
        "meta_norad_cat_id": 35618,
        "meta_element_set_no": 999,
        "meta_rev_at_epoch": 65286,
        "meta_bstar": 0.00091388234,
        "meta_mean_motion_dot": 3.753e-05,
        "meta_mean_motion_ddot": 0,
        "tle_line1": "1 35618U 97051QQ  25339.32144848  .00003753  00000+0  91388-3 0  9990",
        "tle_line2": "2 35618  86.3407 356.7447 0030208  46.3254 314.0448 14.52258119652865"
      },
      "geometry": {
        "type": "Point",
        "coordinates": [
          -10.020919305773146,
          -57.00410820990582
        ]
      }
    },
    {
      "type": "Feature",
      "properties": {
        "norad_id": 35620,
        "name": "IRIDIUM 33 DEB",
        "group": "iridium-33-debris",
        "lat": 3.7111074822722396,
        "lon": 39.276574661602766,
        "alt_km": 782.7894220379121,
        "timestamp": "2025-12-07T20:38:14.449124+00:00",
        "meta_object_name": "IRIDIUM 33 DEB",
        "meta_object_id": "1997-051QS",
        "meta_epoch": "2025-12-06T22:05:29.141088",
        "meta_mean_motion": 14.37743755,
        "meta_eccentricity": 0.01434797,
        "meta_inclination": 86.3877,
        "meta_ra_of_asc_node": 219.9074,
        "meta_arg_of_pericenter": 278.1615,
        "meta_mean_anomaly": 80.3329,
        "meta_ephemeris_type": 0,
        "meta_classification_type": "U",
        "meta_norad_cat_id": 35620,
        "meta_element_set_no": 999,
        "meta_rev_at_epoch": 59882,
        "meta_bstar": 0.0084190173,
        "meta_mean_motion_dot": 0.00028635,
        "meta_mean_motion_ddot": 0,
        "tle_line1": "1 35620U 97051QS  25340.92047617  .00028635  00000+0  84190-2 0  9995",
        "tle_line2": "2 35620  86.3877 219.9074 0143479 278.1615  80.3329 14.37743755598820"
      },
      "geometry": {
        "type": "Point",
        "coordinates": [
          39.276574661602766,
          3.7111074822722396
        ]
      }
    },
    {
      "type": "Feature",
      "properties": {
        "norad_id": 35622,
        "name": "IRIDIUM 33 DEB",
        "group": "iridium-33-debris",
        "lat": -0.565471657288024,
        "lon": 86.04234114931491,
        "alt_km": 564.6879098882537,
        "timestamp": "2025-12-07T20:38:14.449144+00:00",
        "meta_object_name": "IRIDIUM 33 DEB",
        "meta_object_id": "1997-051QU",
        "meta_epoch": "2025-12-07T06:08:10.382208",
        "meta_mean_motion": 15.0368423,
        "meta_eccentricity": 0.00091825,
        "meta_inclination": 86.2049,
        "meta_ra_of_asc_node": 266.3018,
        "meta_arg_of_pericenter": 353.8818,
        "meta_mean_anomaly": 157.8722,
        "meta_ephemeris_type": 0,
        "meta_classification_type": "U",
        "meta_norad_cat_id": 35622,
        "meta_element_set_no": 999,
        "meta_rev_at_epoch": 87277,
        "meta_bstar": 0.0074565803,
        "meta_mean_motion_dot": 0.00103587,
        "meta_mean_motion_ddot": 0,
        "tle_line1": "1 35622U 97051QU  25341.25567572  .00103587  00000+0  74566-2 0  9997",
        "tle_line2": "2 35622  86.2049 266.3018 0009182 353.8818 157.8722 15.03684230872776"
      },
      "geometry": {
        "type": "Point",
        "coordinates": [
          86.04234114931491,
          -0.565471657288024
        ]
      }
    },
    {
      "type": "Feature",
      "properties": {
        "norad_id": 35628,
        "name": "IRIDIUM 33 DEB",
        "group": "iridium-33-debris",
        "lat": -66.48977404123461,
        "lon": 2.8327109994552004,
        "alt_km": 673.1473375435708,
        "timestamp": "2025-12-07T20:38:14.449160+00:00",
        "meta_object_name": "IRIDIUM 33 DEB",
        "meta_object_id": "1997-051RA",
        "meta_epoch": "2025-12-04T09:28:36.488064",
        "meta_mean_motion": 14.67394134,
        "meta_eccentricity": 0.001144,
        "meta_inclination": 86.3576,
        "meta_ra_of_asc_node": 12.797,
        "meta_arg_of_pericenter": 12.0998,
        "meta_mean_anomaly": 348.0488,
        "meta_ephemeris_type": 0,
        "meta_classification_type": "U",
        "meta_norad_cat_id": 35628,
        "meta_element_set_no": 999,
        "meta_rev_at_epoch": 86324,
        "meta_bstar": 0.0032445,
        "meta_mean_motion_dot": 0.00018408,
        "meta_mean_motion_ddot": 0,
        "tle_line1": "1 35628U 97051RA  25338.39486676  .00018408  00000+0  32445-2 0  9996",
        "tle_line2": "2 35628  86.3576  12.7970 0011440  12.0998 348.0488 14.67394134863246"
      },
      "geometry": {
        "type": "Point",
        "coordinates": [
          2.8327109994552004,
          -66.48977404123461
        ]
      }
    },
    {
      "type": "Feature",
      "properties": {
        "norad_id": 35631,
        "name": "IRIDIUM 33 DEB",
        "group": "iridium-33-debris",
        "lat": -4.260624985423577,
        "lon": -156.65123074059946,
        "alt_km": 729.9571862706125,
        "timestamp": "2025-12-07T20:38:14.449177+00:00",
        "meta_object_name": "IRIDIUM 33 DEB",
        "meta_object_id": "1997-051RD",
        "meta_epoch": "2025-12-06T21:23:47.071392",
        "meta_mean_motion": 14.47286545,
        "meta_eccentricity": 0.00185223,
        "meta_inclination": 86.3689,
        "meta_ra_of_asc_node": 23.4943,
        "meta_arg_of_pericenter": 135.5581,
        "meta_mean_anomaly": 46.1978,
        "meta_ephemeris_type": 0,
        "meta_classification_type": "U",
        "meta_norad_cat_id": 35631,
        "meta_element_set_no": 999,
        "meta_rev_at_epoch": 87112,
        "meta_bstar": 0.00062002851,
        "meta_mean_motion_dot": 2.292e-05,
        "meta_mean_motion_ddot": 0,
        "tle_line1": "1 35631U 97051RD  25340.89151703  .00002292  00000+0  62003-3 0  9996",
        "tle_line2": "2 35631  86.3689  23.4943 0018522 135.5581  46.1978 14.47286545871121"
      },
      "geometry": {
        "type": "Point",
        "coordinates": [
          -156.65123074059946,
          -4.260624985423577
        ]
      }
    },
    {
      "type": "Feature",
      "properties": {
        "norad_id": 35680,
        "name": "IRIDIUM 33 DEB",
        "group": "iridium-33-debris",
        "lat": -77.21648777205755,
        "lon": -138.8280968179468,
        "alt_km": 742.1474797059036,
        "timestamp": "2025-12-07T20:38:14.449193+00:00",
        "meta_object_name": "IRIDIUM 33 DEB",
        "meta_object_id": "1997-051RJ",
        "meta_epoch": "2025-12-06T09:39:51.736896",
        "meta_mean_motion": 14.20748737,
        "meta_eccentricity": 0.01506079,
        "meta_inclination": 86.1022,
        "meta_ra_of_asc_node": 24.3298,
        "meta_arg_of_pericenter": 298.7228,
        "meta_mean_anomaly": 71.4349,
        "meta_ephemeris_type": 0,
        "meta_classification_type": "U",
        "meta_norad_cat_id": 35680,
        "meta_element_set_no": 999,
        "meta_rev_at_epoch": 60611,
        "meta_bstar": 0.0059192818,
        "meta_mean_motion_dot": 0.00014348,
        "meta_mean_motion_ddot": 0,
        "tle_line1": "1 35680U 97051RJ  25340.40268214  .00014348  00000+0  59193-2 0  9993",
        "tle_line2": "2 35680  86.1022  24.3298 0150607 298.7228  71.4349 14.20748737606113"
      },
      "geometry": {
        "type": "Point",
        "coordinates": [
          -138.8280968179468,
          -77.21648777205755
        ]
      }
    }
  ]
}